     3.04           N: GNSS NAV DATA    M: MIXED            RINEX VERSION / TYPE
ssrcrin-15.6.1x                         20250101 194500 UTC PGM / RUN BY / DATE 
    18                                                      LEAP SECONDS        
                                                            END OF HEADER       
E08 2025 01 01 19 40 00-3.935446729884E-04-6.139089236967E-12 0.000000000000E+00
     4.200000000000E+01-1.498437500000E+02 2.481889094929E-09-5.873532043614E-01
    -6.947666406631E-06 1.769727095962E-04 1.148134469986E-05 5.440625082016E+03
     3.300000000000E+05 2.607703208923E-08 3.139326435490E-01 3.352761268616E-08
     9.694336381280E-01 9.859375000000E+01 6.452156359582E-01-5.193787770679E-09
     2.907263956356E-10 5.170000000000E+02 2.347000000000E+03
     3.120000000000E+00 0.000000000000E+00-5.820766091347E-09-6.053596735001E-09
     3.306650000000E+05
S27 2025 01 01 19 51 28 7.543712854385E-08 5.456968210638E-11 3.306650000000E+05
     2.416273224000E+04 4.390625000000E-03-1.375000000000E-07 3.100000000000E+01
     3.459958240000E+04-3.305000000000E-03-1.500000000000E-07 4.096000000000E+03
     7.408480000000E+01 4.066000000000E-02-4.375000000000E-07 2.100000000000E+01
S28 2025 01 01 19 51 28 3.520399332047E-07 4.547473508865E-11 3.306650000000E+05
     5.132923440000E+03 1.983750000000E-03-1.125000000000E-07 6.300000000000E+01
     4.186731376000E+04-1.186875000000E-03-3.750000000000E-08 3.276700000000E+04
     2.129600000000E+00-1.628000000000E-03 0.000000000000E+00 2.100000000000E+01
S36 2025 01 01 19 51 28 0.000000000000E+00 0.000000000000E+00 3.306890000000E+05
     4.200368800000E+04 0.000000000000E+00 0.000000000000E+00 6.300000000000E+01
     3.674846960000E+03 0.000000000000E+00 0.000000000000E+00 3.276700000000E+04
     0.000000000000E+00 0.000000000000E+00 0.000000000000E+00 1.090000000000E+02
E33 2025 01 01 19 30 00 1.643743598834E-05 5.684341886081E-14 0.000000000000E+00
     4.100000000000E+01 1.847500000000E+02 2.645824494925E-09 1.433774555288E+00
     8.461996912956E-06 3.451220691204E-04 6.817281246185E-07 5.440612949371E+03
     3.294000000000E+05 6.891787052155E-08-1.776040102353E+00-2.235174179077E-08
     9.997044165588E-01 3.416875000000E+02-1.705207886719E+00-5.673807765439E-09
     2.125088518467E-10 5.170000000000E+02 2.347000000000E+03
     3.120000000000E+00 0.000000000000E+00-6.286427378654E-09-6.286427378654E-09
     3.306950000000E+05
S21 2025 01 01 19 52 00 0.000000000000E+00 0.000000000000E+00 3.307250000000E+05
     4.200468400000E+04 0.000000000000E+00 0.000000000000E+00 6.300000000000E+01
    -3.674932960000E+03 0.000000000000E+00 0.000000000000E+00 3.276700000000E+04
     0.000000000000E+00 0.000000000000E+00 0.000000000000E+00 2.900000000000E+01
S23 2025 01 01 19 52 16 0.000000000000E+00 0.000000000000E+00 3.307390000000E+05
     3.866796400000E+04 0.000000000000E+00 0.000000000000E+00 6.300000000000E+01
     1.681330800000E+04 0.000000000000E+00 0.000000000000E+00 3.276700000000E+04
     0.000000000000E+00 0.000000000000E+00 0.000000000000E+00 4.300000000000E+01
E13 2025 01 01 19 40 00-2.861977554858E-05-3.979039320257E-13 0.000000000000E+00
     4.200000000000E+01 1.662187500000E+02 2.541177278805E-09 2.455932970826E+00
     7.798895239830E-06 3.830485511571E-04 1.810491085052E-06 5.440613864899E+03
     3.300000000000E+05-2.793967723846E-08-1.776008351179E+00 5.029141902924E-08
     9.996872243455E-01 3.204375000000E+02-1.108103206912E+00-5.587018436029E-09
     2.039370662260E-10 2.580000000000E+02 2.347000000000E+03
     3.120000000000E+00 0.000000000000E+00 2.561137080193E-09 0.000000000000E+00
     3.307400000000E+05
E23 2025 01 01 19 40 00 8.341041393578E-06-2.415845301584E-13 0.000000000000E+00
     4.200000000000E+01-2.221875000000E+01 3.524432521047E-09 2.547270410323E-01
    -9.685754776001E-07 3.613801673055E-04 6.394460797310E-06 5.440607469559E+03
     3.300000000000E+05-9.313225746155E-09 2.409456121965E+00 2.980232238770E-08
     9.661045295829E-01 2.059687500000E+02 1.613418832708E+00-5.525944463482E-09
    -4.860916762409E-10 2.580000000000E+02 2.347000000000E+03
     3.120000000000E+00 4.800000000000E+01-6.984919309616E-10 0.000000000000E+00
     3.307400000000E+05
E05 2025 01 01 19 40 00 4.815377411433E-03 3.282707439212E-12 0.000000000000E+00
     4.200000000000E+01-1.827812500000E+02 2.616180402986E-09-1.891179396013E+00
    -8.521601557732E-06 2.210855018348E-05 1.135282218456E-05 5.440620124817E+03
     3.300000000000E+05 3.911554813385E-08 3.130894058648E-01-3.911554813385E-08
     9.636092038826E-01 9.587500000000E+01-2.778927182043E+00-5.252718796822E-09
     2.417957860507E-10 2.580000000000E+02 2.347000000000E+03
     3.120000000000E+00 0.000000000000E+00 1.396983861923E-09 0.000000000000E+00
     3.307400000000E+05
E03 2025 01 01 19 40 00-1.638054964133E-04-2.501110429876E-12 0.000000000000E+00
     4.200000000000E+01-1.680312500000E+02 2.680111637407E-09-9.448105734385E-02
    -7.849186658859E-06 2.410113811493E-04 1.083314418793E-05 5.440615774155E+03
     3.300000000000E+05-5.029141902924E-08 3.130830655778E-01-5.587935447693E-09
     9.635956133737E-01 1.106875000000E+02 9.272343661189E-01-5.221288916213E-09
     2.542963067476E-10 2.580000000000E+02 2.347000000000E+03
     3.120000000000E+00 0.000000000000E+00 6.984919309616E-10 0.000000000000E+00
     3.307400000000E+05
E08 2025 01 01 19 40 00-3.935449640267E-04-6.139089236967E-12 0.000000000000E+00
     4.200000000000E+01-1.498437500000E+02 2.481889094929E-09-5.873532043614E-01
    -6.947666406631E-06 1.769727095962E-04 1.148134469986E-05 5.440625082016E+03
     3.300000000000E+05 2.607703208923E-08 3.139326435490E-01 3.352761268616E-08
     9.694336381280E-01 9.859375000000E+01 6.452156359582E-01-5.193787770679E-09
     2.907263956356E-10 2.580000000000E+02 2.347000000000E+03
     3.120000000000E+00 0.000000000000E+00-5.820766091347E-09 0.000000000000E+00
     3.307400000000E+05
E27 2025 01 01 19 40 00-5.451175384223E-04-9.919176591211E-12 0.000000000000E+00
     4.200000000000E+01-2.415625000000E+01 3.556219559390E-09 2.888016699408E+00
    -1.231208443642E-06 3.206046530977E-04 6.338581442833E-06 5.440603710175E+03
     3.300000000000E+05-3.166496753693E-08 2.413449199287E+00-9.685754776001E-08
     9.641941633799E-01 2.078125000000E+02 5.560486534069E-01-5.645949462172E-09
    -5.014494588113E-10 2.580000000000E+02 2.347000000000E+03
     3.120000000000E+00 0.000000000000E+00-2.328306436539E-10 0.000000000000E+00
     3.307400000000E+05
E33 2025 01 01 19 30 00 1.643685391173E-05 5.684341886081E-14 0.000000000000E+00
     4.100000000000E+01 1.847500000000E+02 2.645824494925E-09 1.433774555288E+00
     8.461996912956E-06 3.451220691204E-04 6.817281246185E-07 5.440612949371E+03
     3.294000000000E+05 6.891787052155E-08-1.776040102353E+00-2.235174179077E-08
     9.997044165588E-01 3.416875000000E+02-1.705207886719E+00-5.673807765439E-09
     2.125088518467E-10 2.580000000000E+02 2.347000000000E+03
     3.120000000000E+00 0.000000000000E+00-6.286427378654E-09 0.000000000000E+00
     3.307400000000E+05
S44 2025 01 01 19 52 32 8.414499461651E-07 0.000000000000E+00 3.307520000000E+05
     7.323473040000E+03-1.366250000000E-03-5.000000000000E-08 6.300000000000E+01
     4.149364928000E+04-1.095000000000E-03 2.000000000000E-07 3.276700000000E+04
     1.914570400000E+03 1.589600000000E-02-5.062500000000E-06 6.000000000000E+01
S36 2025 01 01 19 53 52 0.000000000000E+00 0.000000000000E+00 3.308450000000E+05
     4.200368800000E+04 0.000000000000E+00 0.000000000000E+00 6.300000000000E+01
     3.674846960000E+03 0.000000000000E+00 0.000000000000E+00 3.276700000000E+04
     0.000000000000E+00 0.000000000000E+00 0.000000000000E+00 1.100000000000E+02
S23 2025 01 01 19 54 24 0.000000000000E+00 0.000000000000E+00 3.308640000000E+05
     3.866796400000E+04 0.000000000000E+00 0.000000000000E+00 6.300000000000E+01
     1.681330800000E+04 0.000000000000E+00 0.000000000000E+00 3.276700000000E+04
     0.000000000000E+00 0.000000000000E+00 0.000000000000E+00 4.400000000000E+01
S44 2025 01 01 19 54 40 8.414499461651E-07 0.000000000000E+00 3.308720000000E+05
     7.323297200000E+03-1.381250000000E-03-5.000000000000E-08 6.300000000000E+01
     4.149351248000E+04-1.040625000000E-03 2.000000000000E-07 3.276700000000E+04
     1.916522000000E+03 1.459200000000E-02-5.062500000000E-06 6.000000000000E+01
S21 2025 01 01 19 54 40 0.000000000000E+00 0.000000000000E+00 3.308870000000E+05
     4.200468400000E+04 0.000000000000E+00 0.000000000000E+00 6.300000000000E+01
    -3.674932960000E+03 0.000000000000E+00 0.000000000000E+00 3.276700000000E+04
     0.000000000000E+00 0.000000000000E+00 0.000000000000E+00 3.000000000000E+01
S27 2025 01 01 19 55 44 8.940696716309E-08 5.911715561524E-11 3.309220000000E+05
     2.416385176000E+04 4.349375000000E-03-1.500000000000E-07 3.100000000000E+01
     3.459873144000E+04-3.347500000000E-03-1.500000000000E-07 4.096000000000E+03
     8.447960000000E+01 4.055600000000E-02-5.000000000000E-07 2.200000000000E+01
S28 2025 01 01 19 55 44 3.636814653873E-07 4.092726157978E-11 3.309220000000E+05
     5.133427600000E+03 1.951875000000E-03-1.125000000000E-07 6.300000000000E+01
     4.186700872000E+04-1.202500000000E-03-3.750000000000E-08 3.276700000000E+04
     1.712800000000E+00-1.628000000000E-03 0.000000000000E+00 2.200000000000E+01
S23 2025 01 01 19 56 16 0.000000000000E+00 0.000000000000E+00 3.309900000000E+05
     3.866796400000E+04 0.000000000000E+00 0.000000000000E+00 6.300000000000E+01
     1.681330800000E+04 0.000000000000E+00 0.000000000000E+00 3.276700000000E+04
     0.000000000000E+00 0.000000000000E+00 0.000000000000E+00 4.500000000000E+01
